{"type": "FeatureCollection", "features": [ {"type": "Feature", "properties": {"norad_id": 66588, "name": "STARLINK-36076", "group": "last-30-days", "lat": -25.857209836324405, "lon": 37.172960682026705, "alt_km": 447.18572070406026, "timestamp": "2025-12-13T22:39:28.444238+00:00", "meta": {"OBJECT_NAME": "STARLINK-36076", "OBJECT_ID": "2025-270A", "EPOCH": "2025-12-13T06:00:02.000160", "MEAN_MOTION": 15.41006601, "ECCENTRICITY": 0.00011954, "INCLINATION": 42.9999, "RA_OF_ASC_NODE": 189.8342, "ARG_OF_PERICENTER": 243.2394, "MEAN_ANOMALY": 82.5505, "EPHEMERIS_TYPE": 0, "CLASSIFICATION_TYPE": "U", "NORAD_CAT_ID": 66588, "ELEMENT_SET_NO": 999, "REV_AT_EPOCH": 448, "BSTAR": -0.01402835, "MEAN_MOTION_DOT": -0.00551405, "MEAN_MOTION_DDOT": 0}, "tle": {"line1": "1 66588U 25270A   25347.25002315 -.00551405  00000+0 -14028-1 0  9995", "line2": "2 66588  42.9999 189.8342 0001195 243.2394  82.5505 15.41006601  4480"}}, "geometry": {"type": "Point", "coordinates": [37.172960682026705, -25.857209836324405]}}, {"type": "Feature", "properties": {"norad_id": 66589, "name": "STARLINK-35447", "group": "last-30-days", "lat": -41.85405089870989, "lon": 111.67139483123324, "alt_km": 417.42588274462196, "timestamp": "2025-12-13T22:39:28.444251+00:00", "meta": {"OBJECT_NAME": "STARLINK-35447", "OBJECT_ID": "2025-270B", "EPOCH": "2025-12-13T06:00:02.000160", "MEAN_MOTION": 15.50629859, "ECCENTRICITY": 0.00017098, "INCLINATION": 43, "RA_OF_ASC_NODE": 189.7436, "ARG_OF_PERICENTER": 268.9631, "MEAN_ANOMALY": 94.0022, "EPHEMERIS_TYPE": 0, "CLASSIFICATION_TYPE": "U", "NORAD_CAT_ID": 66589, "ELEMENT_SET_NO": 999, "REV_AT_EPOCH": 459, "BSTAR": -0.0015750191, "MEAN_MOTION_DOT": -0.00091833, "MEAN_MOTION_DDOT": 0}, "tle": {"line1": "1 66589U 25270B   25347.25002315 -.00091833  00000+0 -15750-2 0  9994", "line2": "2 66589  43.0000 189.7436 0001709 268.9631  94.0022 15.50629859  4598"}}, "geometry": {"type": "Point", "coordinates": [111.67139483123324, -41.85405089870989]}}, {"type": "Feature", "properties": {"norad_id": 66590, "name": "STARLINK-35429", "group": "last-30-days", "lat": -42.20401694886564, "lon": 108.98216973613152, "alt_km": 417.7559479927095, "timestamp": "2025-12-13T22:39:28.444261+00:00", "meta": {"OBJECT_NAME": "STARLINK-35429", "OBJECT_ID": "2025-270C", "EPOCH": "2025-12-13T06:00:02.000160", "MEAN_MOTION": 15.50697516, "ECCENTRICITY": 0.00018991, "INCLINATION": 42.9998, "RA_OF_ASC_NODE": 189.7488, "ARG_OF_PERICENTER": 265.6014, "MEAN_ANOMALY": 95.4383, "EPHEMERIS_TYPE": 0, "CLASSIFICATION_TYPE": "U", "NORAD_CAT_ID": 66590, "ELEMENT_SET_NO": 999, "REV_AT_EPOCH": 459, "BSTAR": -0.0043221995, "MEAN_MOTION_DOT": -0.00247128, "MEAN_MOTION_DDOT": 0}, "tle": {"line1": "1 66590U 25270C   25347.25002315 -.00247128  00000+0 -43222-2 0  9991", "line2": "2 66590  42.9998 189.7488 0001899 265.6014  95.4383 15.50697516  4590"}}, "geometry": {"type": "Point", "coordinates": [108.98216973613152, -42.20401694886564]}}, {"type": "Feature", "properties": {"norad_id": 66591, "name": "STARLINK-36058", "group": "last-30-days", "lat": -41.48586046793014, "lon": 114.06190151164557, "alt_km": 416.7472180028017, "timestamp": "2025-12-13T22:39:28.444271+00:00", "meta": {"OBJECT_NAME": "STARLINK-36058", "OBJECT_ID": "2025-270D", "EPOCH": "2025-12-13T06:00:02.000160", "MEAN_MOTION": 15.50806972, "ECCENTRICITY": 0.0003393, "INCLINATION": 42.9997, "RA_OF_ASC_NODE": 189.7393, "ARG_OF_PERICENTER": 269.954, "MEAN_ANOMALY": 94.8289, "EPHEMERIS_TYPE": 0, "CLASSIFICATION_TYPE": "U", "NORAD_CAT_ID": 66591, "ELEMENT_SET_NO": 999, "REV_AT_EPOCH": 448, "BSTAR": -0.00583446, "MEAN_MOTION_DOT": -0.00331353, "MEAN_MOTION_DDOT": 0}, "tle": {"line1": "1 66591U 25270D   25347.25002315 -.00331353  00000+0 -58345-2 0  9998", "line2": "2 66591  42.9997 189.7393 0003393 269.9540  94.8289 15.50806972  4481"}}, "geometry": {"type": "Point", "coordinates": [114.06190151164557, -41.48586046793014]}}, {"type": "Feature", "properties": {"norad_id": 66592, "name": "STARLINK-36066", "group": "last-30-days", "lat": -42.87781047316356, "lon": 90.88776734250466, "alt_km": 437.3107866337932, "timestamp": "2025-12-13T22:39:28.444282+00:00", "meta": {"OBJECT_NAME": "STARLINK-36066", "OBJECT_ID": "2025-270E", "EPOCH": "2025-12-13T06:00:02.000160", "MEAN_MOTION": 15.46786343, "ECCENTRICITY": 0.00015724, "INCLINATION": 42.9999, "RA_OF_ASC_NODE": 189.7482, "ARG_OF_PERICENTER": 262.7472, "MEAN_ANOMALY": 98.2296, "EPHEMERIS_TYPE": 0, "CLASSIFICATION_TYPE": "U", "NORAD_CAT_ID": 66592, "ELEMENT_SET_NO": 999, "REV_AT_EPOCH": 438, "BSTAR": -0.045826292, "MEAN_MOTION_DOT": -0.02088457, "MEAN_MOTION_DDOT": 0}, "tle": {"line1": "1 66592U 25270E   25347.25002315 -.02088457  00000+0 -45826-1 0  9994", "line2": "2 66592  42.9999 189.7482 0001572 262.7472  98.2296 15.46786343  4384"}}, "geometry": {"type": "Point", "coordinates": [90.88776734250466, -42.87781047316356]}}, {"type": "Feature", "properties": {"norad_id": 66593, "name": "STARLINK-36031", "group": "last-30-days", "lat": -40.559043105125454, "lon": 118.96703996963016, "alt_km": 417.6506768980289, "timestamp": "2025-12-13T22:39:28.444292+00:00", "meta": {"OBJECT_NAME": "STARLINK-36031", "OBJECT_ID": "2025-270F", "EPOCH": "2025-12-13T06:00:02.000160", "MEAN_MOTION": 15.50665115, "ECCENTRICITY": 0.00018265, "INCLINATION": 43, "RA_OF_ASC_NODE": 189.7292, "ARG_OF_PERICENTER": 266.8816, "MEAN_ANOMALY": 101.8358, "EPHEMERIS_TYPE": 0, "CLASSIFICATION_TYPE": "U", "NORAD_CAT_ID": 66593, "ELEMENT_SET_NO": 999, "REV_AT_EPOCH": 448, "BSTAR": -0.0034094015, "MEAN_MOTION_DOT": -0.00196041, "MEAN_MOTION_DDOT": 0}, "tle": {"line1": "1 66593U 25270F   25347.25002315 -.00196041  00000+0 -34094-2 0  9998", "line2": "2 66593  43.0000 189.7292 0001826 266.8816 101.8358 15.50665115  4487"}}, "geometry": {"type": "Point", "coordinates": [118.96703996963016, -40.559043105125454]}}, {"type": "Feature", "properties": {"norad_id": 66594, "name": "STARLINK-36032", "group": "last-30-days", "lat": -40.04063971988677, "lon": 121.27365806596613, "alt_km": 418.13600767009393, "timestamp": "2025-12-13T22:39:28.444302+00:00", "meta": {"OBJECT_NAME": "STARLINK-36032", "OBJECT_ID": "2025-270G", "EPOCH": "2025-12-13T06:00:02.000160", "MEAN_MOTION": 15.50756043, "ECCENTRICITY": 0.00016139, "INCLINATION": 43, "RA_OF_ASC_NODE": 189.725, "ARG_OF_PERICENTER": 272.5431, "MEAN_ANOMALY": 98.0754, "EPHEMERIS_TYPE": 0, "CLASSIFICATION_TYPE": "U", "NORAD_CAT_ID": 66594, "ELEMENT_SET_NO": 999, "REV_AT_EPOCH": 422, "BSTAR": -0.0062266205, "MEAN_MOTION_DOT": -0.00351919, "MEAN_MOTION_DDOT": 0}, "tle": {"line1": "1 66594U 25270G   25347.25002315 -.00351919  00000+0 -62266-2 0  9998", "line2": "2 66594  43.0000 189.7250 0001613 272.5431  98.0754 15.50756043  4223"}}, "geometry": {"type": "Point", "coordinates": [121.27365806596613, -40.04063971988677]}}, {"type": "Feature", "properties": {"norad_id": 66595, "name": "STARLINK-35711", "group": "last-30-days", "lat": -39.459295470962445, "lon": 123.61098132704548, "alt_km": 418.4756205183039, "timestamp": "2025-12-13T22:39:28.444316+00:00", "meta": {"OBJECT_NAME": "STARLINK-35711", "OBJECT_ID": "2025-270H", "EPOCH": "2025-12-13T06:00:02.000160", "MEAN_MOTION": 15.50791947, "ECCENTRICITY": 0.00013473, "INCLINATION": 42.9999, "RA_OF_ASC_NODE": 189.7201, "ARG_OF_PERICENTER": 261.9239, "MEAN_ANOMALY": 110.5942, "EPHEMERIS_TYPE": 0, "CLASSIFICATION_TYPE": "U", "NORAD_CAT_ID": 66595, "ELEMENT_SET_NO": 999, "REV_AT_EPOCH": 459, "BSTAR": -0.0071802916, "MEAN_MOTION_DOT": -0.00403633, "MEAN_MOTION_DDOT": 0}, "tle": {"line1": "1 66595U 25270H   25347.25002315 -.00403633  00000+0 -71803-2 0  9997", "line2": "2 66595  42.9999 189.7201 0001347 261.9239 110.5942 15.50791947  4598"}}, "geometry": {"type": "Point", "coordinates": [123.61098132704548, -39.459295470962445]}}, {"type": "Feature", "properties": {"norad_id": 66596, "name": "STARLINK-35811", "group": "last-30-days", "lat": -37.959440283246195, "lon": 62.619919528683155, "alt_km": 449.50375061933846, "timestamp": "2025-12-13T22:39:28.444327+00:00", "meta": {"OBJECT_NAME": "STARLINK-35811", "OBJECT_ID": "2025-270J", "EPOCH": "2025-12-13T06:00:02.000160", "MEAN_MOTION": 15.42699092, "ECCENTRICITY": 0.00015847, "INCLINATION": 42.9996, "RA_OF_ASC_NODE": 189.7759, "ARG_OF_PERICENTER": 269.081, "MEAN_ANOMALY": 80.1908, "EPHEMERIS_TYPE": 0, "CLASSIFICATION_TYPE": "U", "NORAD_CAT_ID": 66596, "ELEMENT_SET_NO": 999, "REV_AT_EPOCH": 459, "BSTAR": -0.053732896, "MEAN_MOTION_DOT": -0.02122453, "MEAN_MOTION_DDOT": 0}, "tle": {"line1": "1 66596U 25270J   25347.25002315 -.02122453  00000+0 -53733-1 0  9999", "line2": "2 66596  42.9996 189.7759 0001584 269.0810  80.1908 15.42699092  4594"}}, "geometry": {"type": "Point", "coordinates": [62.619919528683155, -37.959440283246195]}}, {"type": "Feature", "properties": {"norad_id": 66597, "name": "STARLINK-35820", "group": "last-30-days", "lat": -41.124517929906865, "lon": 116.12608244947212, "alt_km": 431.413895073425, "timestamp": "2025-12-13T22:39:28.444337+00:00", "meta": {"OBJECT_NAME": "STARLINK-35820", "OBJECT_ID": "2025-270K", "EPOCH": "2025-12-13T06:00:02.000160", "MEAN_MOTION": 15.48725359, "ECCENTRICITY": 0.00018623, "INCLINATION": 43, "RA_OF_ASC_NODE": 189.7129, "ARG_OF_PERICENTER": 272.0721, "MEAN_ANOMALY": 102.9049, "EPHEMERIS_TYPE": 0, "CLASSIFICATION_TYPE": "U", "NORAD_CAT_ID": 66597, "ELEMENT_SET_NO": 999, "REV_AT_EPOCH": 459, "BSTAR": -0.043201594, "MEAN_MOTION_DOT": -0.02105991, "MEAN_MOTION_DDOT": 0}, "tle": {"line1": "1 66597U 25270K   25347.25002315 -.02105991  00000+0 -43202-1 0  9998", "line2": "2 66597  43.0000 189.7129 0001862 272.0721 102.9049 15.48725359  4599"}}, "geometry": {"type": "Point", "coordinates": [116.12608244947212, -41.124517929906865]}}]}